[{"OBJECT_NAME":"ONEWEB-0412","OBJECT_ID":"2021-132W","EPOCH":"2025-11-17T09:48:56.404224","MEAN_MOTION":13.18686302,"ECCENTRICITY":0.0001993,"INCLINATION":87.9214,"RA_OF_ASC_NODE":17.5198,"ARG_OF_PERICENTER":109.5667,"MEAN_ANOMALY":250.5681,"EPHEMERIS_TYPE":0,"CLASSIFICATION_TYPE":"U","NORAD_CAT_ID":50489,"ELEMENT_SET_NO":999,"REV_AT_EPOCH":19374,"BSTAR":-0.00057088,"MEAN_MOTION_DOT":-2.12e-6,"MEAN_MOTION_DDOT":0},{"OBJECT_NAME":"ONEWEB-0413","OBJECT_ID":"2021-132X","EPOCH":"2025-11-17T09:56:05.959968","MEAN_MOTION":13.1868626,"ECCENTRICITY":0.0002096,"INCLINATION":87.9206,"RA_OF_ASC_NODE":17.5342,"ARG_OF_PERICENTER":105.7523,"MEAN_ANOMALY":254.384,"EPHEMERIS_TYPE":0,"CLASSIFICATION_TYPE":"U","NORAD_CAT_ID":50490,"ELEMENT_SET_NO":999,"REV_AT_EPOCH":19368,"BSTAR":0.00023888,"MEAN_MOTION_DOT":1.07e-6,"MEAN_MOTION_DDOT":0},{"OBJECT_NAME":"ONEWEB-0414","OBJECT_ID":"2021-132Y","EPOCH":"2025-11-17T09:34:41.185056","MEAN_MOTION":13.1868957,"ECCENTRICITY":0.0001787,"INCLINATION":87.9219,"RA_OF_ASC_NODE":17.498,"ARG_OF_PERICENTER":106.9426,"MEAN_ANOMALY":253.1902,"EPHEMERIS_TYPE":0,"CLASSIFICATION_TYPE":"U","NORAD_CAT_ID":50491,"ELEMENT_SET_NO":999,"REV_AT_EPOCH":19371,"BSTAR":0.00018142,"MEAN_MOTION_DOT":8.4e-7,"MEAN_MOTION_DDOT":0},{"OBJECT_NAME":"ONEWEB-0417","OBJECT_ID":"2021-132Z","EPOCH":"2025-11-17T09:46:33.922848","MEAN_MOTION":13.18689093,"ECCENTRICITY":0.0001584,"INCLINATION":87.922,"RA_OF_ASC_NODE":17.5302,"ARG_OF_PERICENTER":97.947,"MEAN_ANOMALY":262.1842,"EPHEMERIS_TYPE":0,"CLASSIFICATION_TYPE":"U","NORAD_CAT_ID":50492,"ELEMENT_SET_NO":999,"REV_AT_EPOCH":19369,"BSTAR":0.00024531,"MEAN_MOTION_DOT":1.1e-6,"MEAN_MOTION_DDOT":0},{"OBJECT_NAME":"ONEWEB-0418","OBJECT_ID":"2021-132AA","EPOCH":"2025-11-17T10:00:38.381760","MEAN_MOTION":13.18688237,"ECCENTRICITY":0.0001333,"INCLINATION":87.9214,"RA_OF_ASC_NODE":17.513,"ARG_OF_PERICENTER":94.9574,"MEAN_ANOMALY":265.171,"EPHEMERIS_TYPE":0,"CLASSIFICATION_TYPE":"U","NORAD_CAT_ID":50493,"ELEMENT_SET_NO":999,"REV_AT_EPOCH":19375,"BSTAR":0.00021221,"MEAN_MOTION_DOT":9.7e-7,"MEAN_MOTION_DDOT":0},{"OBJECT_NAME":"ONEWEB-0419","OBJECT_ID":"2021-132AB","EPOCH":"2025-11-17T04:59:09.860928","MEAN_MOTION":13.18688341,"ECCENTRICITY":0.00017131,"INCLINATION":87.9215,"RA_OF_ASC_NODE":17.5547,"ARG_OF_PERICENTER":90.9963,"MEAN_ANOMALY":269.1366,"EPHEMERIS_TYPE":0,"CLASSIFICATION_TYPE":"U","NORAD_CAT_ID":50494,"ELEMENT_SET_NO":999,"REV_AT_EPOCH":19364,"BSTAR":0.00030115534,"MEAN_MOTION_DOT":1.32e-6,"MEAN_MOTION_DDOT":0},{"OBJECT_NAME":"ONEWEB-0420","OBJECT_ID":"2021-132AC","EPOCH":"2025-11-17T09:37:06.123648","MEAN_MOTION":13.18675774,"ECCENTRICITY":0.0002092,"INCLINATION":87.9227,"RA_OF_ASC_NODE":17.528,"ARG_OF_PERICENTER":101.4035,"MEAN_ANOMALY":258.7332,"EPHEMERIS_TYPE":0,"CLASSIFICATION_TYPE":"U","NORAD_CAT_ID":50495,"ELEMENT_SET_NO":999,"REV_AT_EPOCH":19366,"BSTAR":0.00012525,"MEAN_MOTION_DOT":6.2e-7,"MEAN_MOTION_DDOT":0},{"OBJECT_NAME":"ONEWEB-0421","OBJECT_ID":"2021-132AD","EPOCH":"2025-11-17T09:27:34.848576","MEAN_MOTION":13.18687926,"ECCENTRICITY":0.0001806,"INCLINATION":87.9217,"RA_OF_ASC_NODE":17.5225,"ARG_OF_PERICENTER":110.0972,"MEAN_ANOMALY":250.0354,"EPHEMERIS_TYPE":0,"CLASSIFICATION_TYPE":"U","NORAD_CAT_ID":50496,"ELEMENT_SET_NO":999,"REV_AT_EPOCH":19370,"BSTAR":5.8805e-5,"MEAN_MOTION_DOT":3.6e-7,"MEAN_MOTION_DDOT":0},{"OBJECT_NAME":"ONEWEB-0424","OBJECT_ID":"2021-132AE","EPOCH":"2025-11-17T10:19:50.378016","MEAN_MOTION":13.1868775,"ECCENTRICITY":0.000185,"INCLINATION":87.9214,"RA_OF_ASC_NODE":17.5108,"ARG_OF_PERICENTER":86.9619,"MEAN_ANOMALY":273.1725,"EPHEMERIS_TYPE":0,"CLASSIFICATION_TYPE":"U","NORAD_CAT_ID":50497,"ELEMENT_SET_NO":999,"REV_AT_EPOCH":19373,"BSTAR":8.9197e-5,"MEAN_MOTION_DOT":4.8e-7,"MEAN_MOTION_DDOT":0},{"OBJECT_NAME":"ONEWEB-0426","OBJECT_ID":"2021-132AF","EPOCH":"2025-11-17T03:55:01.020864","MEAN_MOTION":13.18686833,"ECCENTRICITY":0.00013834,"INCLINATION":87.9217,"RA_OF_ASC_NODE":17.5549,"ARG_OF_PERICENTER":119.7168,"MEAN_ANOMALY":240.4102,"EPHEMERIS_TYPE":0,"CLASSIFICATION_TYPE":"U","NORAD_CAT_ID":50498,"ELEMENT_SET_NO":999,"REV_AT_EPOCH":19364,"BSTAR":-0.00082227706,"MEAN_MOTION_DOT":-3.11e-6,"MEAN_MOTION_DDOT":0},{"OBJECT_NAME":"ONEWEB-0427","OBJECT_ID":"2021-132AG","EPOCH":"2025-11-17T10:17:27.536352","MEAN_MOTION":13.1868472,"ECCENTRICITY":0.0001644,"INCLINATION":87.9212,"RA_OF_ASC_NODE":17.4905,"ARG_OF_PERICENTER":97.0141,"MEAN_ANOMALY":263.1178,"EPHEMERIS_TYPE":0,"CLASSIFICATION_TYPE":"U","NORAD_CAT_ID":50499,"ELEMENT_SET_NO":999,"REV_AT_EPOCH":19370,"BSTAR":9.8227e-5,"MEAN_MOTION_DOT":5.2e-7,"MEAN_MOTION_DDOT":0},{"OBJECT_NAME":"ONEWEB-0429","OBJECT_ID":"2021-132AH","EPOCH":"2025-11-17T09:58:26.721120","MEAN_MOTION":13.18689169,"ECCENTRICITY":0.0001965,"INCLINATION":87.9213,"RA_OF_ASC_NODE":17.5247,"ARG_OF_PERICENTER":98.9151,"MEAN_ANOMALY":261.2204,"EPHEMERIS_TYPE":0,"CLASSIFICATION_TYPE":"U","NORAD_CAT_ID":50500,"ELEMENT_SET_NO":999,"REV_AT_EPOCH":19367,"BSTAR":0.00027408,"MEAN_MOTION_DOT":1.21e-6,"MEAN_MOTION_DDOT":0},{"OBJECT_NAME":"ONEWEB-0430","OBJECT_ID":"2021-132AJ","EPOCH":"2025-11-17T09:41:49.039584","MEAN_MOTION":13.18687526,"ECCENTRICITY":0.0001987,"INCLINATION":87.9219,"RA_OF_ASC_NODE":17.522,"ARG_OF_PERICENTER":92.138,"MEAN_ANOMALY":267.998,"EPHEMERIS_TYPE":0,"CLASSIFICATION_TYPE":"U","NORAD_CAT_ID":50501,"ELEMENT_SET_NO":999,"REV_AT_EPOCH":19371,"BSTAR":-0.00046341,"MEAN_MOTION_DOT":-1.7e-6,"MEAN_MOTION_DDOT":0},{"OBJECT_NAME":"ONEWEB-0432","OBJECT_ID":"2021-132AK","EPOCH":"2025-11-17T10:27:31.164768","MEAN_MOTION":13.18674152,"ECCENTRICITY":0.0001312,"INCLINATION":87.9209,"RA_OF_ASC_NODE":17.489,"ARG_OF_PERICENTER":69.9285,"MEAN_ANOMALY":290.1988,"EPHEMERIS_TYPE":0,"CLASSIFICATION_TYPE":"U","NORAD_CAT_ID":50502,"ELEMENT_SET_NO":999,"REV_AT_EPOCH":19367,"BSTAR":-1.8901e-5,"MEAN_MOTION_DOT":5.0e-8,"MEAN_MOTION_DDOT":0},{"OBJECT_NAME":"ONEWEB-0440","OBJECT_ID":"2021-132AL","EPOCH":"2025-11-17T04:42:32.792832","MEAN_MOTION":13.18688209,"ECCENTRICITY":0.0002068,"INCLINATION":87.9216,"RA_OF_ASC_NODE":17.5536,"ARG_OF_PERICENTER":109.4025,"MEAN_ANOMALY":250.733,"EPHEMERIS_TYPE":0,"CLASSIFICATION_TYPE":"U","NORAD_CAT_ID":50503,"ELEMENT_SET_NO":999,"REV_AT_EPOCH":19363,"BSTAR":0.0002256143,"MEAN_MOTION_DOT":1.02e-6,"MEAN_MOTION_DDOT":0},{"OBJECT_NAME":"ONEWEB-0450","OBJECT_ID":"2021-132AM","EPOCH":"2025-11-17T10:01:02.914176","MEAN_MOTION":13.18686041,"ECCENTRICITY":0.0002125,"INCLINATION":87.921,"RA_OF_ASC_NODE":17.5329,"ARG_OF_PERICENTER":96.7714,"MEAN_ANOMALY":263.366,"EPHEMERIS_TYPE":0,"CLASSIFICATION_TYPE":"U","NORAD_CAT_ID":50504,"ELEMENT_SET_NO":999,"REV_AT_EPOCH":19369,"BSTAR":0.00019532,"MEAN_MOTION_DOT":9.0e-7,"MEAN_MOTION_DDOT":0},{"OBJECT_NAME":"ONEWEB-0410","OBJECT_ID":"2022-012A","EPOCH":"2025-11-17T06:42:21.048192","MEAN_MOTION":13.17649816,"ECCENTRICITY":4.977e-5,"INCLINATION":87.9139,"RA_OF_ASC_NODE":47.9793,"ARG_OF_PERICENTER":145.6427,"MEAN_ANOMALY":214.4737,"EPHEMERIS_TYPE":0,"CLASSIFICATION_TYPE":"U","NORAD_CAT_ID":51622,"ELEMENT_SET_NO":999,"REV_AT_EPOCH":18579,"BSTAR":-0.00091581419,"MEAN_MOTION_DOT":-3.43e-6,"MEAN_MOTION_DDOT":0}]
