ONEWEB-0412             
1 50489U 21132W   25321.40898616 -.00000212  00000+0 -57088-3 0  9997
2 50489  87.9214  17.5198 0001993 109.5667 250.5681 13.18686302193745
ONEWEB-0413             
1 50490U 21132X   25321.41395787  .00000107  00000+0  23888-3 0  9993
2 50490  87.9206  17.5342 0002096 105.7523 254.3840 13.18686260193688
ONEWEB-0414             
1 50491U 21132Y   25321.39908779  .00000084  00000+0  18142-3 0  9993
2 50491  87.9219  17.4980 0001787 106.9426 253.1902 13.18689570193718
ONEWEB-0417             
1 50492U 21132Z   25321.40733707  .00000110  00000+0  24531-3 0  9992
2 50492  87.9220  17.5302 0001584  97.9470 262.1842 13.18689093193693
ONEWEB-0418             
1 50493U 21132AA  25321.41711090  .00000097  00000+0  21221-3 0  9992
2 50493  87.9214  17.5130 0001333  94.9574 265.1710 13.18688237193753
ONEWEB-0419             
1 50494U 21132AB  25321.20775302  .00000132  00000+0  30116-3 0  9999
2 50494  87.9215  17.5547 0001713  90.9963 269.1366 13.18688341193642
ONEWEB-0420             
1 50495U 21132AC  25321.40076532  .00000062  00000+0  12525-3 0  9997
2 50495  87.9227  17.5280 0002092 101.4035 258.7332 13.18675774193664
ONEWEB-0421             
1 50496U 21132AD  25321.39415334  .00000036  00000+0  58805-4 0  9996
2 50496  87.9217  17.5225 0001806 110.0972 250.0354 13.18687926193707
ONEWEB-0424             
1 50497U 21132AE  25321.43044419  .00000048  00000+0  89197-4 0  9995
2 50497  87.9214  17.5108 0001850  86.9619 273.1725 13.18687750193739
ONEWEB-0426             
1 50498U 21132AF  25321.16320626 -.00000311  00000+0 -82228-3 0  9995
2 50498  87.9217  17.5549 0001383 119.7168 240.4102 13.18686833193644
ONEWEB-0427             
1 50499U 21132AG  25321.42879093  .00000052  00000+0  98227-4 0  9999
2 50499  87.9212  17.4905 0001644  97.0141 263.1178 13.18684720193709
ONEWEB-0429             
1 50500U 21132AH  25321.41558705  .00000121  00000+0  27408-3 0  9994
2 50500  87.9213  17.5247 0001965  98.9151 261.2204 13.18689169193677
ONEWEB-0430             
1 50501U 21132AJ  25321.40403981 -.00000170  00000+0 -46341-3 0  9992
2 50501  87.9219  17.5220 0001987  92.1380 267.9980 13.18687526193713
ONEWEB-0432             
1 50502U 21132AK  25321.43577737  .00000005  00000+0 -18901-4 0  9995
2 50502  87.9209  17.4890 0001312  69.9285 290.1988 13.18674152193675
ONEWEB-0440             
1 50503U 21132AL  25321.19621288  .00000102  00000+0  22561-3 0  9993
2 50503  87.9216  17.5536 0002068 109.4025 250.7330 13.18688209193630
ONEWEB-0450             
1 50504U 21132AM  25321.41739484  .00000090  00000+0  19532-3 0  9997
2 50504  87.9210  17.5329 0002125  96.7714 263.3660 13.18686041193696
ONEWEB-0410             
1 51622U 22012A   25321.27941028 -.00000343  00000+0 -91581-3 0  9997
2 51622  87.9139  47.9793 0000497 145.6427 214.4737 13.17649816185797
